[{"OBJECT_NAME":"STARLINK-35881","OBJECT_ID":"2025-280K","EPOCH":"2026-03-09T23:15:17.063136","MEAN_MOTION":14.9839933,"ECCENTRICITY":0.00016193,"INCLINATION":70.0042,"RA_OF_ASC_NODE":333.92,"ARG_OF_PERICENTER":218.1502,"MEAN_ANOMALY":141.9542,"EPHEMERIS_TYPE":0,"CLASSIFICATION_TYPE":"U","NORAD_CAT_ID":66830,"ELEMENT_SET_NO":999,"REV_AT_EPOCH":1611,"BSTAR":0.0034462676,"MEAN_MOTION_DOT":0.00041343,"MEAN_MOTION_DDOT":0},{"OBJECT_NAME":"CZ-6A DEB","OBJECT_ID":"2022-151ADF","EPOCH":"2026-03-09T04:17:36.420864","MEAN_MOTION":14.87187722,"ECCENTRICITY":0.00591597,"INCLINATION":98.625,"RA_OF_ASC_NODE":143.8674,"ARG_OF_PERICENTER":184.385,"MEAN_ANOMALY":175.6853,"EPHEMERIS_TYPE":0,"CLASSIFICATION_TYPE":"U","NORAD_CAT_ID":56583,"ELEMENT_SET_NO":999,"REV_AT_EPOCH":15845,"BSTAR":0.004175752,"MEAN_MOTION_DOT":0.00038922,"MEAN_MOTION_DDOT":0}]
